[{"OBJECT_NAME":"ONEWEB-0018","OBJECT_ID":"2020-020L","EPOCH":"2026-03-03T11:17:39.424416","MEAN_MOTION":13.1141605,"ECCENTRICITY":0.0001765,"INCLINATION":87.8857,"RA_OF_ASC_NODE":42.0872,"ARG_OF_PERICENTER":90.3841,"MEAN_ANOMALY":269.7489,"EPHEMERIS_TYPE":0,"CLASSIFICATION_TYPE":"U","NORAD_CAT_ID":45434,"ELEMENT_SET_NO":999,"REV_AT_EPOCH":28877,"BSTAR":0.0014365,"MEAN_MOTION_DOT":5.22e-6,"MEAN_MOTION_DDOT":0},{"OBJECT_NAME":"ONEWEB-0083","OBJECT_ID":"2020-020M","EPOCH":"2026-03-03T11:04:13.730592","MEAN_MOTION":13.11416669,"ECCENTRICITY":0.0001889,"INCLINATION":87.8859,"RA_OF_ASC_NODE":42.0765,"ARG_OF_PERICENTER":85.0735,"MEAN_ANOMALY":275.0608,"EPHEMERIS_TYPE":0,"CLASSIFICATION_TYPE":"U","NORAD_CAT_ID":45435,"ELEMENT_SET_NO":999,"REV_AT_EPOCH":28881,"BSTAR":0.0014017,"MEAN_MOTION_DOT":5.09e-6,"MEAN_MOTION_DDOT":0},{"OBJECT_NAME":"ONEWEB-0095","OBJECT_ID":"2020-020N","EPOCH":"2026-03-03T10:50:59.408736","MEAN_MOTION":13.11419205,"ECCENTRICITY":0.0002386,"INCLINATION":87.8859,"RA_OF_ASC_NODE":42.0872,"ARG_OF_PERICENTER":67.98,"MEAN_ANOMALY":292.1582,"EPHEMERIS_TYPE":0,"CLASSIFICATION_TYPE":"U","NORAD_CAT_ID":45436,"ELEMENT_SET_NO":999,"REV_AT_EPOCH":28881,"BSTAR":0.00050278,"MEAN_MOTION_DOT":1.91e-6,"MEAN_MOTION_DDOT":0},{"OBJECT_NAME":"ONEWEB-0092","OBJECT_ID":"2020-020P","EPOCH":"2026-03-03T12:00:22.500288","MEAN_MOTION":13.11416365,"ECCENTRICITY":0.0001897,"INCLINATION":87.8854,"RA_OF_ASC_NODE":42.0778,"ARG_OF_PERICENTER":73.7816,"MEAN_ANOMALY":286.3521,"EPHEMERIS_TYPE":0,"CLASSIFICATION_TYPE":"U","NORAD_CAT_ID":45437,"ELEMENT_SET_NO":999,"REV_AT_EPOCH":28893,"BSTAR":-0.0014682,"MEAN_MOTION_DOT":-5.08e-6,"MEAN_MOTION_DDOT":0},{"OBJECT_NAME":"ONEWEB-0085","OBJECT_ID":"2020-020Q","EPOCH":"2026-03-03T11:03:00.376128","MEAN_MOTION":13.11416624,"ECCENTRICITY":0.000185,"INCLINATION":87.8851,"RA_OF_ASC_NODE":42.09,"ARG_OF_PERICENTER":82.0718,"MEAN_ANOMALY":278.062,"EPHEMERIS_TYPE":0,"CLASSIFICATION_TYPE":"U","NORAD_CAT_ID":45438,"ELEMENT_SET_NO":999,"REV_AT_EPOCH":28881,"BSTAR":0.001354,"MEAN_MOTION_DOT":4.93e-6,"MEAN_MOTION_DDOT":0},{"OBJECT_NAME":"ONEWEB-0096","OBJECT_ID":"2020-020R","EPOCH":"2026-03-03T11:05:26.918304","MEAN_MOTION":13.11416058,"ECCENTRICITY":0.0001791,"INCLINATION":87.8859,"RA_OF_ASC_NODE":42.0776,"ARG_OF_PERICENTER":82.4793,"MEAN_ANOMALY":277.6538,"EPHEMERIS_TYPE":0,"CLASSIFICATION_TYPE":"U","NORAD_CAT_ID":45439,"ELEMENT_SET_NO":999,"REV_AT_EPOCH":28880,"BSTAR":0.0013893,"MEAN_MOTION_DOT":5.05e-6,"MEAN_MOTION_DDOT":0},{"OBJECT_NAME":"ONEWEB-0037","OBJECT_ID":"2020-020S","EPOCH":"2026-03-03T10:37:21.674208","MEAN_MOTION":13.11417859,"ECCENTRICITY":0.0001896,"INCLINATION":87.8866,"RA_OF_ASC_NODE":42.057,"ARG_OF_PERICENTER":81.382,"MEAN_ANOMALY":278.7523,"EPHEMERIS_TYPE":0,"CLASSIFICATION_TYPE":"U","NORAD_CAT_ID":45440,"ELEMENT_SET_NO":999,"REV_AT_EPOCH":28883,"BSTAR":-0.0006269,"MEAN_MOTION_DOT":-2.09e-6,"MEAN_MOTION_DDOT":0},{"OBJECT_NAME":"ONEWEB-0042","OBJECT_ID":"2020-020T","EPOCH":"2026-03-03T10:50:35.285856","MEAN_MOTION":13.11417795,"ECCENTRICITY":0.000175,"INCLINATION":87.8857,"RA_OF_ASC_NODE":42.0772,"ARG_OF_PERICENTER":81.9454,"MEAN_ANOMALY":278.1873,"EPHEMERIS_TYPE":0,"CLASSIFICATION_TYPE":"U","NORAD_CAT_ID":45441,"ELEMENT_SET_NO":999,"REV_AT_EPOCH":28880,"BSTAR":0.0005599,"MEAN_MOTION_DOT":2.11e-6,"MEAN_MOTION_DDOT":0},{"OBJECT_NAME":"ONEWEB-0098","OBJECT_ID":"2020-020U","EPOCH":"2026-03-03T10:44:41.075232","MEAN_MOTION":13.11417527,"ECCENTRICITY":0.00019,"INCLINATION":87.8855,"RA_OF_ASC_NODE":42.0895,"ARG_OF_PERICENTER":85.8233,"MEAN_ANOMALY":274.3112,"EPHEMERIS_TYPE":0,"CLASSIFICATION_TYPE":"U","NORAD_CAT_ID":45442,"ELEMENT_SET_NO":999,"REV_AT_EPOCH":28878,"BSTAR":5.6822e-5,"MEAN_MOTION_DOT":3.3e-7,"MEAN_MOTION_DDOT":0},{"OBJECT_NAME":"ONEWEB-0055","OBJECT_ID":"2020-020V","EPOCH":"2026-03-03T10:20:16.234080","MEAN_MOTION":13.11417004,"ECCENTRICITY":0.00019,"INCLINATION":87.8855,"RA_OF_ASC_NODE":42.0933,"ARG_OF_PERICENTER":86.4466,"MEAN_ANOMALY":273.6879,"EPHEMERIS_TYPE":0,"CLASSIFICATION_TYPE":"U","NORAD_CAT_ID":45443,"ELEMENT_SET_NO":999,"REV_AT_EPOCH":28875,"BSTAR":-0.001472,"MEAN_MOTION_DOT":-5.09e-6,"MEAN_MOTION_DDOT":0},{"OBJECT_NAME":"ONEWEB-0093","OBJECT_ID":"2020-020W","EPOCH":"2026-03-03T11:34:56.284032","MEAN_MOTION":13.11414232,"ECCENTRICITY":0.0001442,"INCLINATION":87.8857,"RA_OF_ASC_NODE":42.0724,"ARG_OF_PERICENTER":78.5942,"MEAN_ANOMALY":281.5348,"EPHEMERIS_TYPE":0,"CLASSIFICATION_TYPE":"U","NORAD_CAT_ID":45444,"ELEMENT_SET_NO":999,"REV_AT_EPOCH":28882,"BSTAR":0.00044229,"MEAN_MOTION_DOT":1.69e-6,"MEAN_MOTION_DDOT":0},{"OBJECT_NAME":"ONEWEB-0029","OBJECT_ID":"2020-020X","EPOCH":"2026-03-03T10:08:03.491232","MEAN_MOTION":13.11415249,"ECCENTRICITY":0.0001689,"INCLINATION":87.8854,"RA_OF_ASC_NODE":42.0959,"ARG_OF_PERICENTER":86.0467,"MEAN_ANOMALY":274.0854,"EPHEMERIS_TYPE":0,"CLASSIFICATION_TYPE":"U","NORAD_CAT_ID":45445,"ELEMENT_SET_NO":999,"REV_AT_EPOCH":28879,"BSTAR":-0.0013429,"MEAN_MOTION_DOT":-4.63e-6,"MEAN_MOTION_DDOT":0},{"OBJECT_NAME":"ONEWEB-0068","OBJECT_ID":"2020-020Y","EPOCH":"2026-03-03T11:34:32.330496","MEAN_MOTION":13.11414518,"ECCENTRICITY":0.0001653,"INCLINATION":87.8859,"RA_OF_ASC_NODE":42.0747,"ARG_OF_PERICENTER":86.0998,"MEAN_ANOMALY":274.0319,"EPHEMERIS_TYPE":0,"CLASSIFICATION_TYPE":"U","NORAD_CAT_ID":45446,"ELEMENT_SET_NO":999,"REV_AT_EPOCH":28874,"BSTAR":0.00041249,"MEAN_MOTION_DOT":1.59e-6,"MEAN_MOTION_DDOT":0},{"OBJECT_NAME":"ONEWEB-0046","OBJECT_ID":"2020-020Z","EPOCH":"2026-03-03T11:22:31.952352","MEAN_MOTION":13.11414405,"ECCENTRICITY":0.0001725,"INCLINATION":87.8859,"RA_OF_ASC_NODE":42.0831,"ARG_OF_PERICENTER":77.2311,"MEAN_ANOMALY":282.9009,"EPHEMERIS_TYPE":0,"CLASSIFICATION_TYPE":"U","NORAD_CAT_ID":45447,"ELEMENT_SET_NO":999,"REV_AT_EPOCH":28875,"BSTAR":0.0011895,"MEAN_MOTION_DOT":4.34e-6,"MEAN_MOTION_DDOT":0},{"OBJECT_NAME":"ONEWEB-0063","OBJECT_ID":"2020-020AA","EPOCH":"2026-03-03T10:14:09.268224","MEAN_MOTION":13.11416001,"ECCENTRICITY":0.0001868,"INCLINATION":87.8859,"RA_OF_ASC_NODE":42.0901,"ARG_OF_PERICENTER":77.0316,"MEAN_ANOMALY":283.1021,"EPHEMERIS_TYPE":0,"CLASSIFICATION_TYPE":"U","NORAD_CAT_ID":45448,"ELEMENT_SET_NO":999,"REV_AT_EPOCH":28883,"BSTAR":-0.0014431,"MEAN_MOTION_DOT":-4.99e-6,"MEAN_MOTION_DDOT":0},{"OBJECT_NAME":"ONEWEB-0019","OBJECT_ID":"2020-020AB","EPOCH":"2026-03-03T11:10:07.534272","MEAN_MOTION":13.11415659,"ECCENTRICITY":0.0001977,"INCLINATION":87.8846,"RA_OF_ASC_NODE":42.077,"ARG_OF_PERICENTER":88.0894,"MEAN_ANOMALY":272.046,"EPHEMERIS_TYPE":0,"CLASSIFICATION_TYPE":"U","NORAD_CAT_ID":45449,"ELEMENT_SET_NO":999,"REV_AT_EPOCH":28868,"BSTAR":0.0015365,"MEAN_MOTION_DOT":5.57e-6,"MEAN_MOTION_DDOT":0},{"OBJECT_NAME":"ONEWEB-0094","OBJECT_ID":"2020-020AC","EPOCH":"2026-03-03T10:10:19.477056","MEAN_MOTION":13.17652096,"ECCENTRICITY":0.0001751,"INCLINATION":87.9148,"RA_OF_ASC_NODE":26.8414,"ARG_OF_PERICENTER":87.5024,"MEAN_ANOMALY":272.6308,"EPHEMERIS_TYPE":0,"CLASSIFICATION_TYPE":"U","NORAD_CAT_ID":45450,"ELEMENT_SET_NO":999,"REV_AT_EPOCH":29238,"BSTAR":-2.31e-6,"MEAN_MOTION_DOT":1.2e-7,"MEAN_MOTION_DDOT":0},{"OBJECT_NAME":"ONEWEB-0087","OBJECT_ID":"2020-020AD","EPOCH":"2026-03-03T10:28:36.346656","MEAN_MOTION":13.11416941,"ECCENTRICITY":0.0001574,"INCLINATION":87.8864,"RA_OF_ASC_NODE":42.0545,"ARG_OF_PERICENTER":87.6583,"MEAN_ANOMALY":272.4726,"EPHEMERIS_TYPE":0,"CLASSIFICATION_TYPE":"U","NORAD_CAT_ID":45451,"ELEMENT_SET_NO":999,"REV_AT_EPOCH":28872,"BSTAR":-0.0010925,"MEAN_MOTION_DOT":-3.74e-6,"MEAN_MOTION_DDOT":0},{"OBJECT_NAME":"ONEWEB-0082","OBJECT_ID":"2020-020AE","EPOCH":"2026-03-03T10:23:55.132800","MEAN_MOTION":13.11417027,"ECCENTRICITY":0.0001636,"INCLINATION":87.8862,"RA_OF_ASC_NODE":42.0794,"ARG_OF_PERICENTER":88.3641,"MEAN_ANOMALY":271.7675,"EPHEMERIS_TYPE":0,"CLASSIFICATION_TYPE":"U","NORAD_CAT_ID":45452,"ELEMENT_SET_NO":999,"REV_AT_EPOCH":28881,"BSTAR":-0.0012622,"MEAN_MOTION_DOT":-4.35e-6,"MEAN_MOTION_DDOT":0},{"OBJECT_NAME":"ONEWEB-0050","OBJECT_ID":"2020-020AF","EPOCH":"2026-03-03T12:17:43.113120","MEAN_MOTION":14.89974337,"ECCENTRICITY":0.0003974,"INCLINATION":88.9192,"RA_OF_ASC_NODE":247.6008,"ARG_OF_PERICENTER":34.0635,"MEAN_ANOMALY":326.0848,"EPHEMERIS_TYPE":0,"CLASSIFICATION_TYPE":"U","NORAD_CAT_ID":45453,"ELEMENT_SET_NO":999,"REV_AT_EPOCH":32464,"BSTAR":0.00026338,"MEAN_MOTION_DOT":2.558e-5,"MEAN_MOTION_DDOT":0},{"OBJECT_NAME":"ONEWEB-0034","OBJECT_ID":"2020-020AG","EPOCH":"2026-03-03T10:54:27.437472","MEAN_MOTION":13.11416884,"ECCENTRICITY":0.0001852,"INCLINATION":87.8859,"RA_OF_ASC_NODE":42.0799,"ARG_OF_PERICENTER":83.8547,"MEAN_ANOMALY":276.2792,"EPHEMERIS_TYPE":0,"CLASSIFICATION_TYPE":"U","NORAD_CAT_ID":45454,"ELEMENT_SET_NO":999,"REV_AT_EPOCH":28873,"BSTAR":0.00079319,"MEAN_MOTION_DOT":2.94e-6,"MEAN_MOTION_DDOT":0},{"OBJECT_NAME":"ONEWEB-0060","OBJECT_ID":"2020-020AH","EPOCH":"2026-03-03T12:02:47.635872","MEAN_MOTION":13.11416675,"ECCENTRICITY":0.0001114,"INCLINATION":87.8846,"RA_OF_ASC_NODE":42.0818,"ARG_OF_PERICENTER":114.6017,"MEAN_ANOMALY":245.5227,"EPHEMERIS_TYPE":0,"CLASSIFICATION_TYPE":"U","NORAD_CAT_ID":45455,"ELEMENT_SET_NO":999,"REV_AT_EPOCH":28869,"BSTAR":-0.0014396,"MEAN_MOTION_DOT":-4.97e-6,"MEAN_MOTION_DDOT":0},{"OBJECT_NAME":"ONEWEB-0086","OBJECT_ID":"2020-020AJ","EPOCH":"2026-03-03T11:32:17.569824","MEAN_MOTION":13.11414069,"ECCENTRICITY":0.0001843,"INCLINATION":87.8858,"RA_OF_ASC_NODE":42.073,"ARG_OF_PERICENTER":110.0064,"MEAN_ANOMALY":250.1263,"EPHEMERIS_TYPE":0,"CLASSIFICATION_TYPE":"U","NORAD_CAT_ID":45456,"ELEMENT_SET_NO":999,"REV_AT_EPOCH":28875,"BSTAR":0.00068819,"MEAN_MOTION_DOT":2.57e-6,"MEAN_MOTION_DDOT":0},{"OBJECT_NAME":"ONEWEB-0088","OBJECT_ID":"2020-020AK","EPOCH":"2026-03-03T11:00:33.897024","MEAN_MOTION":13.11416786,"ECCENTRICITY":0.0001722,"INCLINATION":87.8867,"RA_OF_ASC_NODE":42.0416,"ARG_OF_PERICENTER":75.2262,"MEAN_ANOMALY":284.9056,"EPHEMERIS_TYPE":0,"CLASSIFICATION_TYPE":"U","NORAD_CAT_ID":45457,"ELEMENT_SET_NO":999,"REV_AT_EPOCH":28868,"BSTAR":0.0013457,"MEAN_MOTION_DOT":4.9e-6,"MEAN_MOTION_DDOT":0}]
